{"_default": { "268": {"norad_id": "52761", "name": "ION SCV-006", "tle1": "1 52761U 22057AF  26164.92724979  .00013081  00000-0  27560-3 0  9991", "tle2": "2 52761  97.6091 313.3928 0018282 124.6956 235.6018 15.45216808225619", "object_type": "PAYLOAD", "criticality_score": 7.0, "last_updated": "2026-06-14T08:16:17.656748+00:00", "maneuver_count": 0, "owner": "N/A"}, "275": {"norad_id": "52763", "name": "SHERPA-AC1", "tle1": "1 52763U 22057AH  26164.94039403  .00007171  00000-0  20535-3 0  9994", "tle2": "2 52763  97.6676 314.0314 0008936 103.2291 256.9949 15.36222052225209", "object_type": "PAYLOAD", "criticality_score": 7.0, "last_updated": "2026-06-14T08:16:17.656748+00:00", "maneuver_count": 0, "owner": "N/A"}, "279": {"norad_id": "52771", "name": "OMNI-L2", "tle1": "1 52771U 22057AR  26164.88028767  .00001303  00000-0  17279-3 0  9999", "tle2": "2 52771  97.4717 227.4609 0006077 348.9709  11.1371 14.81362946219908", "object_type": "PAYLOAD", "criticality_score": 7.0, "last_updated": "2026-06-14T08:16:17.656748+00:00", "maneuver_count": 0, "owner": "N/A"}, "280": {"norad_id": "52422", "name": "BRO-6", "tle1": "1 52422U 22047AE  26164.97530697  .00039696  00000-0  69842-3 0  9990", "tle2": "2 52422  97.3406 255.9688 0005312  89.6233 270.5627 15.50352951230652", "object_type": "PAYLOAD", "criticality_score": 7.0, "last_updated": "2026-06-14T08:16:17.656748+00:00", "maneuver_count": 0, "owner": "N/A"}, "296": {"norad_id": "52897", "name": "STEP CUBE LAB-II", "tle1": "1 52897U 22065D   26164.92209730  .00000899  00000-0  18356-3 0  9999", "tle2": "2 52897  98.2216 308.8338 0009555  41.6378 318.5550 14.63299628211020", "object_type": "PAYLOAD", "criticality_score": 7.0, "last_updated": "2026-06-14T08:16:17.656748+00:00", "maneuver_count": 0, "owner": "N/A"}, "297": {"norad_id": "52898", "name": "RANDEV", "tle1": "1 52898U 22065E   26164.92403709  .00000882  00000-0  17875-3 0  9999", "tle2": "2 52898  98.2201 309.1858 0008868  42.4733 317.7154 14.63686571210775", "object_type": "PAYLOAD", "criticality_score": 7.0, "last_updated": "2026-06-14T08:16:17.656748+00:00", "maneuver_count": 0, "owner": "N/A"}, "298": {"norad_id": "52899", "name": "SNUGLITE-II", "tle1": "1 52899U 22065F   26164.68284672  .00000895  00000-0  17864-3 0  9991", "tle2": "2 52899  98.2197 309.5196 0008219  43.0601 317.1243 14.64342046210488", "object_type": "PAYLOAD", "criticality_score": 7.0, "last_updated": "2026-06-14T08:16:17.656748+00:00", "maneuver_count": 0, "owner": "N/A"}, "301": {"norad_id": "52900", "name": "MIMAN", "tle1": "1 52900U 22065G   26164.89971168  .00000470  00000-0  10359-3 0  9991", "tle2": "2 52900  98.2256 307.3987 0008414  44.2037 315.9835 14.61840781209964", "object_type": "PAYLOAD", "criticality_score": 7.0, "last_updated": "2026-06-14T08:16:17.656748+00:00", "maneuver_count": 0, "owner": "N/A"}, "308": {"norad_id": "53109", "name": "AVUM R/B", "tle1": "1 53109U 22080E   26164.29338770 -.00000003  00000-0  00000-0 0  9992", "tle2": "2 53109  70.1444 299.5995 0008911 290.4576  69.5127  6.42583230 91812", "object_type": "ROCKET_BODY", "criticality_score": 3.0, "last_updated": "2026-06-14T08:16:17.656748+00:00", "maneuver_count": 0, "owner": "N/A"}, "313": {"norad_id": "53105", "name": "LARES-2", "tle1": "1 53105U 22080A   26164.25617662 -.00000017  00000-0  00000-0 0  9999", "tle2": "2 53105  70.1627 306.6773 0005398 335.8266  24.1972  6.38965105 91412", "object_type": "PAYLOAD", "criticality_score": 7.0, "last_updated": "2026-06-14T08:16:17.656748+00:00", "maneuver_count": 0, "owner": "N/A"}, "314": {"norad_id": "52760", "name": "VIGORIDE 3", "tle1": "1 52760U 22057AE  26164.94076364  .00005952  00000-0  22560-3 0  9993", "tle2": "2 52760  97.6597 304.8289 0009466 130.2791 229.9276 15.27249195224669", "object_type": "PAYLOAD", "criticality_score": 7.0, "last_updated": "2026-06-14T08:16:17.656748+00:00", "maneuver_count": 0, "owner": "N/A"}, "325": {"norad_id": "52157", "name": "OMNI-L1", "tle1": "1 52157U 22033A   26164.93964559  .00001888  00000-0  24028-3 0  9993", "tle2": "2 52157  97.8397 244.1799 0003915 302.7691  57.3145 14.82738438226976", "object_type": "PAYLOAD", "criticality_score": 7.0, "last_updated": "2026-06-14T08:16:17.656748+00:00", "maneuver_count": 0, "owner": "N/A"}, "329": {"norad_id": "53204", "name": "STARLINK-4410", "tle1": "1 53204U 22084R   26164.91668981  .00038495  00000-0  13298-2 0  9991", "tle2": "2 53204  97.6017 225.9263 0001634  78.7028 134.0032 15.29831915  5867", "object_type": "PAYLOAD", "criticality_score": 8.0, "last_updated": "2026-06-14T08:16:17.656748+00:00", "maneuver_count": 0, "owner": "N/A"}, "332": {"norad_id": "53043", "name": "STARLINK-4362", "tle1": "1 53043U 22077A   26164.94270970  .00000767  00000-0  57134-4 0  9994", "tle2": "2 53043  97.3661 344.0385 0001555  79.2349 280.9054 15.05646588215392", "object_type": "PAYLOAD", "criticality_score": 8.0, "last_updated": "2026-06-14T08:16:17.656748+00:00", "maneuver_count": 0, "owner": "N/A"}, "338": {"norad_id": "51827", "name": "OBJECT D", "tle1": "1 51827U 22019D   26164.93833882  .00083438  00000-0  67254-3 0  9993", "tle2": "2 51827  97.3674 257.2464 0005428 153.7992 206.3547 15.70628147239198", "object_type": "PAYLOAD", "criticality_score": 7.0, "last_updated": "2026-06-14T08:16:17.656748+00:00", "maneuver_count": 0, "owner": "N/A"}, "402": {"norad_id": "52085", "name": "CZ-4C R/B", "tle1": "1 52085U 22027B   26164.93999879 -.00000063  00000-0  32657-4 0  9992", "tle2": "2 52085  63.3942  67.5685 0232270  22.6394 338.4689 13.65479937211591", "object_type": "ROCKET_BODY", "criticality_score": 3.0, "last_updated": "2026-06-14T08:16:17.656748+00:00", "maneuver_count": 0, "owner": "N/A"}, "415": {"norad_id": "51284", "name": "LT-1 01A", "tle1": "1 51284U 22007A   26164.95424308  .00000578  00000-0  68161-4 0  9991", "tle2": "2 51284  97.8098 172.4201 0001606  90.6197 269.5203 14.88418584237993", "object_type": "PAYLOAD", "criticality_score": 7.0, "last_updated": "2026-06-14T08:16:17.656748+00:00", "maneuver_count": 0, "owner": "N/A"}, "426": {"norad_id": "52161", "name": "ARCSAT-1", "tle1": "1 52161U 22033E   26164.77622826  .00013157  00000-0  20829-3 0  9995", "tle2": "2 52161  97.2757 256.9985 0004585 192.6860 167.4279 15.53547896235179", "object_type": "PAYLOAD", "criticality_score": 7.0, "last_updated": "2026-06-14T08:16:17.656748+00:00", "maneuver_count": 0, "owner": "N/A"}, "430": {"norad_id": "51832", "name": "OBJECT J", "tle1": "1 51832U 22019J   26164.98170587  .00002058  00000-0  97444-4 0  9994", "tle2": "2 51832  97.3438 227.8750 0007226 233.9850 126.0716 15.20426111237315", "object_type": "PAYLOAD", "criticality_score": 7.0, "last_updated": "2026-06-14T08:16:17.656748+00:00", "maneuver_count": 0, "owner": "N/A"}, "439": {"norad_id": "52196", "name": "GLOBAL-18", "tle1": "1 52196U 22034B   26164.57058664  .00023922  00000-0  48727-3 0  9993", "tle2": "2 52196  52.9825 273.9225 0003125 261.2897  98.7755 15.46143454236405", "object_type": "PAYLOAD", "criticality_score": 7.0, "last_updated": "2026-06-14T08:16:17.656748+00:00", "maneuver_count": 0, "owner": "N/A"}, "441": {"norad_id": "53346", "name": "OBJECT A", "tle1": "1 53346U 22090A   26164.93619199  .00004110  00000-0  18627-3 0  9993", "tle2": "2 53346  97.3144 233.1367 0003113 185.5775 174.5427 15.21387122214315", "object_type": "PAYLOAD", "criticality_score": 7.0, "last_updated": "2026-06-14T08:16:17.656748+00:00", "maneuver_count": 0, "owner": "N/A"}, "456": {"norad_id": "52445", "name": "JILIN-01 GAOFEN 3D 28", "tle1": "1 52445U 22048C   26164.85697172  .00144211  00000-0  85806-3 0  9993", "tle2": "2 52445  97.5650 278.6283 0000686 163.1341 196.9948 15.77554145229002", "object_type": "PAYLOAD", "criticality_score": 7.0, "last_updated": "2026-06-14T08:16:17.656748+00:00", "maneuver_count": 0, "owner": "N/A"}, "457": {"norad_id": "52444", "name": "JILIN-01 GAOFEN 3D 27", "tle1": "1 52444U 22048B   26164.85133045  .00122751  00000-0  83214-3 0  9992", "tle2": "2 52444  97.5711 278.4857 0001338  52.2466 307.8919 15.74622096228957", "object_type": "PAYLOAD", "criticality_score": 7.0, "last_updated": "2026-06-14T08:16:17.656748+00:00", "maneuver_count": 0, "owner": "N/A"}, "483": {"norad_id": "52159", "name": "ENMAP", "tle1": "1 52159U 22033C   26164.97708547 -.00000020  00000-0  44498-5 0  9995", "tle2": "2 52159  97.9797 247.2721 0001386  84.1415 275.9952 14.74983567226180", "object_type": "PAYLOAD", "criticality_score": 7.0, "last_updated": "2026-06-14T08:16:17.656748+00:00", "maneuver_count": 0, "owner": "N/A"}, "484": {"norad_id": "51951", "name": "OBJECT F", "tle1": "1 51951U 22023F   26164.91654942  .00015554  00000-0  61848-3 0  9999", "tle2": "2 51951  63.4455 284.5991 0129578 342.5203  17.1469 15.18012203237215", "object_type": "PAYLOAD", "criticality_score": 7.0, "last_updated": "2026-06-14T08:16:17.656748+00:00", "maneuver_count": 0, "owner": "N/A"}, "501": {"norad_id": "51822", "name": "LT-1 01B", "tle1": "1 51822U 22018A   26164.92061907  .00000569  00000-0  67253-4 0  9991", "tle2": "2 51822  97.8102 172.3833 0001590  91.3086 268.8313 14.88414579233220", "object_type": "PAYLOAD", "criticality_score": 7.0, "last_updated": "2026-06-14T08:16:17.656748+00:00", "maneuver_count": 0, "owner": "N/A"}, "513": {"norad_id": "52257", "name": "DAQI 1", "tle1": "1 52257U 22039A   26164.98778846  .00000224  00000-0  59019-4 0  9999", "tle2": "2 52257  98.1480 103.9058 0002249 269.7684  90.3257 14.57675676221474", "object_type": "PAYLOAD", "criticality_score": 7.0, "last_updated": "2026-06-14T08:16:17.656748+00:00", "maneuver_count": 0, "owner": "N/A"}, "569": {"norad_id": "53323", "name": "COSMOS 2558", "tle1": "1 53323U 22089A   26164.84228843  .00109995  00000-0  74993-3 0  9993", "tle2": "2 53323  97.2265 268.7712 0000912 233.6055 126.5126 15.74529067217300", "object_type": "PAYLOAD", "criticality_score": 7.0, "last_updated": "2026-06-14T08:16:17.656748+00:00", "maneuver_count": 0, "owner": "N/A"}, "577": {"norad_id": "52200", "name": "GAOFEN 3 03", "tle1": "1 52200U 22035A   26164.96890574 -.00000096  00000-0 -15969-4 0  9999", "tle2": "2 52200  98.4060 173.5956 0001234 102.0378 258.0950 14.42214301220381", "object_type": "PAYLOAD", "criticality_score": 7.0, "last_updated": "2026-06-14T08:16:17.656748+00:00", "maneuver_count": 0, "owner": "N/A"}, "662": {"norad_id": "52145", "name": "MERIDIAN 10", "tle1": "1 52145U 22030A   26163.98247039  .00000221  00000-0  00000-0 0  9999", "tle2": "2 52145  62.6764 141.2538 6782592 272.8566  17.6612  2.00614112 30945", "object_type": "PAYLOAD", "criticality_score": 7.0, "last_updated": "2026-06-14T08:16:17.656748+00:00", "maneuver_count": 0, "owner": "N/A"}}}