OBJECT_NAME,OBJECT_ID,EPOCH,MEAN_MOTION,ECCENTRICITY,INCLINATION,RA_OF_ASC_NODE,ARG_OF_PERICENTER,MEAN_ANOMALY,EPHEMERIS_TYPE,CLASSIFICATION_TYPE,NORAD_CAT_ID,ELEMENT_SET_NO,REV_AT_EPOCH,BSTAR,MEAN_MOTION_DOT,MEAN_MOTION_DDOT
LUDI TANCE 1-01A (L-SAR 01A),2022-007A,2026-06-13T22:54:06.602112,14.88418584,.00016057,97.8098,172.4201,90.6197,269.5203,0,U,51284,999,23799,.68160728E-4,.578E-5,0
LUDI TANCE 1-01B (L-SAR 01B),2022-018A,2026-06-13T22:05:41.487648,14.88414579,.00015904,97.8102,172.3833,91.3086,268.8313,0,U,51822,999,23322,.67253442E-4,.569E-5,0
2022-019D,2022-019D,2026-06-13T22:31:12.474048,15.70628147,.00054279,97.3674,257.2464,153.7992,206.3547,0,U,51827,999,23919,.67253828E-3,.83438E-3,0
2022-019J,2022-019J,2026-06-13T23:33:39.387168,15.20426111,.00072257,97.3438,227.8750,233.9850,126.0716,0,U,51832,999,23731,.97444182E-4,.2058E-4,0
2022-023F,2022-023F,2026-06-13T21:59:49.869888,15.18012203,.01295784,63.4455,284.5991,342.5203,17.1469,0,U,51951,999,23721,.61848458E-3,.15554E-3,0
CZ-4C R/B,2022-027B,2026-06-13T22:33:35.895456,13.65479937,.02322704,63.3942,67.5685,22.6394,338.4689,0,U,52085,999,21159,.32656837E-4,-.63E-6,0
MERIDIAN 10,2022-030A,2026-06-12T23:34:45.441696,2.00614112,.67825916,62.6764,141.2538,272.8566,17.6612,0,U,52145,999,3094,0,.221E-5,0
OMNI-L1,2022-033A,2026-06-13T22:33:05.378976,14.82738438,.00039152,97.8397,244.1799,302.7691,57.3145,0,U,52157,999,22697,.24028158E-3,.1888E-4,0
ENMAP,2022-033C,2026-06-13T23:27:00.184608,14.74983567,.00013857,97.9797,247.2721,84.1415,275.9952,0,U,52159,999,22618,.4449793E-5,-.2E-6,0
ARCSAT-1,2022-033E,2026-06-13T18:37:46.121664,15.53547896,.00045845,97.2757,256.9985,192.6860,167.4279,0,U,52161,999,23517,.20829421E-3,.13157E-3,0
GLOBAL-18,2022-034B,2026-06-13T13:41:38.685696,15.46143454,.0003125,52.9825,273.9225,261.2897,98.7755,0,U,52196,999,23640,.48727E-3,.23922E-3,0
GAOFEN-3 03,2022-035A,2026-06-13T23:15:13.455936,14.42214301,.00012336,98.4060,173.5956,102.0378,258.0950,0,U,52200,999,22038,-.15969193E-4,-.96E-6,0
DAQI-1,2022-039A,2026-06-13T23:42:24.922944,14.57675676,.00022486,98.1480,103.9058,269.7684,90.3257,0,U,52257,999,22147,.59018884E-4,.224E-5,0
BRO-6,2022-047AE,2026-06-13T23:24:26.522208,15.50352951,.00053115,97.3406,255.9688,89.6233,270.5627,0,U,52422,999,23065,.69841589E-3,.39696E-3,0
JILIN-1 GAOFEN 3D27,2022-048B,2026-06-13T20:25:54.950880,15.74622096,.00013379,97.5711,278.4857,52.2466,307.8919,0,U,52444,999,22895,.83213948E-3,.122751E-2,0
JILIN-1 GAOFEN 3D28,2022-048C,2026-06-13T20:34:02.356608,15.77554145,.00006855,97.5650,278.6283,163.1341,196.9948,0,U,52445,999,22900,.85806264E-3,.144211E-2,0
VIGORIDE-3,2022-057AE,2026-06-13T22:34:41.978496,15.27249195,.00094658,97.6597,304.8289,130.2791,229.9276,0,U,52760,999,22466,.22559808E-3,.5952E-4,0
ION SCV-006,2022-057AF,2026-06-13T22:15:14.381856,15.45216808,.00182817,97.6091,313.3928,124.6956,235.6018,0,U,52761,999,22561,.27560034E-3,.13081E-3,0
SHERPA-AC1,2022-057AH,2026-06-13T22:34:10.044192,15.36222052,.00089356,97.6676,314.0314,103.2291,256.9949,0,U,52763,999,22520,.20535482E-3,.7171E-4,0
OMNI-L2,2022-057AR,2026-06-13T21:07:36.854688,14.81362946,.00060766,97.4717,227.4609,348.9709,11.1371,0,U,52771,999,21990,.17278807E-3,.1303E-4,0
STEP CUBE LAB-II,2022-065D,2026-06-13T22:07:49.206720,14.63299628,.00095548,98.2216,308.8338,41.6378,318.5550,0,U,52897,999,21102,.18355683E-3,.899E-5,0
RANDEV,2022-065E,2026-06-13T22:10:36.804576,14.63686571,.00088676,98.2201,309.1858,42.4733,317.7154,0,U,52898,999,21077,.17874951E-3,.882E-5,0
SNUGLITE-II,2022-065F,2026-06-13T16:23:17.956608,14.64342046,.00082194,98.2197,309.5196,43.0601,317.1243,0,U,52899,999,21048,.17863985E-3,.895E-5,0
MIMAN,2022-065G,2026-06-13T21:35:35.089152,14.61840781,.00084144,98.2256,307.3987,44.2037,315.9835,0,U,52900,999,20996,.10359406E-3,.47E-5,0
STARLINK-4362,2022-077A,2026-06-13T22:37:30.118080,15.05646588,.00015547,97.3661,344.0385,79.2349,280.9054,0,U,53043,999,21539,.57133983E-4,.767E-5,0
LARES-2,2022-080A,2026-06-13T06:08:53.659968,6.38965105,.0005398,70.1627,306.6773,335.8266,24.1972,0,U,53105,999,9141,0,-.17E-6,0
GREENCUBE (IO-117),2022-080E,2026-06-13T07:02:28.697280,6.42583230,.00089108,70.1444,299.5995,290.4576,69.5127,0,U,53109,999,9181,0,-.3E-7,0
STARLINK-4410,2022-084R,2026-06-13T22:00:01.999584,15.29831915,.00016337,97.6017,225.9263,78.7028,134.0032,0,U,53204,999,586,.13297672E-2,.38495E-3,0
COSMOS 2558,2022-089A,2026-06-13T20:12:53.720352,15.74529067,.0000912,97.2265,268.7712,233.6055,126.5126,0,U,53323,999,21730,.74993E-3,.109995E-2,0
TECMS,2022-090A,2026-06-13T22:28:06.987936,15.21387122,.00031134,97.3144,233.1367,185.5775,174.5427,0,U,53346,999,21431,.18626738E-3,.411E-4,0
